OBJECT_NAME,OBJECT_ID,EPOCH,MEAN_MOTION,ECCENTRICITY,INCLINATION,RA_OF_ASC_NODE,ARG_OF_PERICENTER,MEAN_ANOMALY,EPHEMERIS_TYPE,CLASSIFICATION_TYPE,NORAD_CAT_ID,ELEMENT_SET_NO,REV_AT_EPOCH,BSTAR,MEAN_MOTION_DOT,MEAN_MOTION_DDOT
FOSSASAT-2E19 (TAT-E),2025-009BV,2026-05-12T06:07:57.070560,15.20959053,.00068738,97.3961,211.1782,102.8471,257.3533,0,U,62676,999,7323,.75967771E-4,.1614E-4,0
ELEVATION-1,2025-009BW,2026-05-12T05:07:49.897344,15.40108080,.00047657,97.3838,217.0408,97.0209,263.1579,0,U,62677,999,13128,.39196184E-3,.15628E-3,0
FLOCK 4G-15,2025-009BX,2026-05-11T18:45:16.215552,15.28645290,.00063049,97.4017,213.8472,91.4411,268.7551,0,U,62678,999,13098,.24052241E-3,.6629E-4,0
FLOCK 4G-30,2025-009BY,2026-05-11T23:04:37.521696,15.29674275,.00049235,97.3925,213.3857,109.2531,250.9242,0,U,62679,999,13100,.82384464E-3,.23666E-3,0
FLOCK 4G-18,2025-009BZ,2026-05-11T18:42:29.619936,15.28616397,.00067674,97.4013,213.6731,101.3142,258.8859,0,U,62680,999,13097,.25096696E-3,.6915E-4,0
FLOCK 4G-17,2025-009CA,2026-05-12T04:59:00.458016,15.28804432,.00061725,97.3926,213.8042,103.5537,256.6391,0,U,62681,999,13105,.2250071E-3,.6227E-4,0
FOREST-3,2025-009CB,2026-05-12T04:44:11.629248,15.24339248,.00066163,97.3906,212.1442,108.5083,251.6874,0,U,62682,999,13095,.14565769E-3,.3494E-4,0
IRIS-F2,2025-009CD,2026-05-12T06:31:03.497664,15.25928035,.00068212,97.3892,212.4484,113.9302,246.2652,0,U,62684,999,13098,.33690556E-3,.8579E-4,0
FLOCK 4G-33,2025-009CE,2026-05-12T02:23:20.205024,15.25033789,.00071764,97.3947,212.3964,98.5244,261.6807,0,U,62685,999,7330,.15472708E-3,.3795E-4,0
FOSSASAT-2E18 (TAT-A),2025-009CF,2026-05-12T05:01:07.795200,15.20853513,.00077118,97.3972,211.1940,101.5487,258.6615,0,U,62686,999,7322,.94504085E-4,.2019E-4,0
BLUEBON,2025-009CH,2026-05-11T23:04:26.929056,15.30162673,.00031349,97.3983,215.1767,104.6040,255.5548,0,U,62688,999,7343,.1835849E-3,.5282E-4,0
TRANSPORTER-12 OBJECT CL,2025-009CL,2026-05-11T23:05:58.862976,15.43367828,.00011663,97.3769,216.5845,23.1050,337.0250,0,U,62691,999,7360,.55171652E-3,.24574E-3,0
LEMUR-2-WILSON,2025-009CP,2026-05-11T11:39:13.176288,14.95000178,.00041981,97.7026,210.5985,141.9769,218.1748,0,U,62694,999,7187,.14372154E-3,.1515E-4,0
CONNECTA IOT-8,2025-009CQ,2026-05-12T04:27:19.340928,14.93131662,.00041741,97.7078,210.7563,111.8331,248.3333,0,U,62695,999,7192,.48302142E-4,.448E-5,0
LEMUR-2-STAR-FOX,2025-009CR,2026-05-12T04:33:06.159168,15.01940746,.00008902,97.6885,214.0880,203.6588,156.4596,0,U,62696,999,7215,.31736162E-3,.4092E-4,0
IRIDE-MS2-HEO-1,2025-009CS,2026-05-12T06:26:57.703488,14.94263837,.00037044,97.7044,211.2407,114.8119,245.3487,0,U,62697,999,7197,.79419708E-4,.796E-5,0
ICEYE-X42,2025-009CT,2026-05-12T06:08:46.022208,14.91827367,.00015828,97.7399,211.2152,106.9411,253.1982,0,U,62698,999,7193,.11205633E-3,.1075E-4,0
LEMUR-2-ARIANNA,2025-009CU,2026-05-12T04:29:33.205632,15.01880771,.00012349,97.6822,213.8881,236.7883,123.3223,0,U,62699,999,7215,.36759317E-3,.4743E-4,0
ICEYE-X41,2025-009CV,2026-05-12T02:24:30.729888,14.96516486,.00031347,97.7068,212.1578,123.2027,236.9496,0,U,62700,999,7201,.23471397E-3,.261E-4,0
FIREFLY-1,2025-009CW,2026-05-12T05:33:50.707296,14.92773033,.00056788,97.7069,211.1069,86.4905,273.6964,0,U,62701,999,7195,.94050764E-4,.917E-5,0
NORSAT 4,2025-009CX,2026-05-12T02:27:06.451200,14.94909765,.00028242,97.7048,211.4417,127.8579,232.2898,0,U,62702,999,7197,.14920627E-3,.1571E-4,0
CONNECTA IOT-5,2025-009CY,2026-05-12T04:28:40.321920,14.94085165,.00028282,97.7026,211.4740,150.8623,209.2756,0,U,62703,999,7199,.5731866E-4,.556E-5,0
FIREFLY-2,2025-009CZ,2026-05-12T06:38:17.434752,14.92729413,.00058399,97.7028,210.9556,184.3709,175.7461,0,U,62704,999,7196,.67643169E-4,.643E-5,0
ICEYE-X45,2025-009DA,2026-05-12T04:39:30.179520,15.00855819,.00009897,97.8214,218.6235,103.5503,256.5831,0,U,62705,999,7228,.20441251E-3,.2538E-4,0
LEMUR-2-ALISIA,2025-009DB,2026-05-11T18:32:45.941280,15.02199418,.00021753,97.6958,214.1984,357.7880,2.3335,0,U,62706,999,9469,.41031327E-3,.5346E-4,0
ICEYE-X44,2025-009DC,2026-05-12T05:33:55.207872,14.95798169,.00009986,97.7057,211.9321,153.6200,206.5072,0,U,62707,999,9456,.21565898E-3,.2349E-4,0
CENTAURI-7,2025-009DD,2026-05-12T04:23:45.026592,14.97566302,.00017859,97.7101,212.9199,72.1504,287.9913,0,U,62708,999,7207,.20119706E-3,.2291E-4,0
CONNECTA IOT-6,2025-009DE,2026-05-12T02:22:38.860032,14.94134832,.00005135,97.7028,211.1551,172.8750,187.2478,0,U,62709,999,7197,.95154261E-4,.962E-5,0
FIREFLY-3,2025-009DF,2026-05-12T06:07:08.250240,14.92794281,.00023488,97.7060,211.1666,290.6636,69.4332,0,U,62710,999,7197,.62545965E-4,.591E-5,0
LEMUR-2-ROUNDTRIPPER,2025-009DG,2026-05-11T16:31:20.478144,15.03208253,.0002029,97.7251,214.4413,238.8707,121.2319,0,U,62711,999,7214,.34172528E-3,.4562E-4,0
LEMUR-2-MYNAMEISJEFF,2025-009DH,2026-05-11T22:52:39.284544,15.03202850,.00007892,97.7299,215.0645,1.5280,358.5948,0,U,62712,999,7218,.34231365E-3,.457E-4,0
SATGUS,2025-009DJ,2026-05-12T06:20:30.139872,15.00762421,.0007236,97.7028,213.9774,213.3433,146.7336,0,U,62713,999,7217,.2533472E-3,.3155E-4,0
CENTAURI-8,2025-009DK,2026-05-12T05:02:56.270400,14.97522744,.00005784,97.7042,212.8049,243.2167,116.8996,0,U,62714,999,7209,.14819481E-3,.167E-4,0
CONNECTA IOT-7,2025-009DL,2026-05-12T04:58:51.102624,14.94106838,.00009835,97.7080,211.6313,33.5593,326.5690,0,U,62715,999,7197,.35149073E-4,.32E-5,0
PRSC-EO1,2025-012A,2026-05-12T06:12:14.036256,15.17622532,.00062498,97.4235,205.4177,38.3841,321.7837,0,U,62725,999,7274,.16863682E-3,.3326E-4,0
2025-012B,2025-012B,2026-05-12T03:34:11.379648,15.20878073,.00100295,97.4239,205.7315,50.6109,309.6014,0,U,62726,999,7277,.14312709E-3,.3097E-4,0
2025-012C,2025-012C,2026-05-12T07:30:48.362400,15.26760299,.00079668,97.4267,207.9980,44.0290,316.1582,0,U,62727,999,7291,.24462936E-3,.6367E-4,0
2025-013A,2025-013A,2026-05-12T07:08:51.564192,15.33177045,.00095018,97.6390,309.7272,65.5792,294.6440,0,U,62729,999,7245,.58153361E-3,.18608E-3,0
2025-013B,2025-013B,2026-05-12T06:07:45.056640,15.11079804,.00146416,97.6542,301.6087,129.3561,230.8968,0,U,62730,999,7190,.12367692E-3,.2008E-4,0
2025-013C,2025-013C,2026-05-12T07:21:38.234592,15.11049008,.00153992,97.6490,301.3882,132.4625,227.7909,0,U,62731,999,7191,.12004043E-3,.1946E-4,0
2025-013D,2025-013D,2026-05-12T06:19:29.324640,15.11097399,.00095014,97.6527,301.6541,145.6919,214.4926,0,U,62732,999,7185,.13111969E-3,.2131E-4,0
2025-013E,2025-013E,2026-05-12T07:48:20.543328,15.10846518,.00097198,97.6543,301.6662,134.4683,225.7343,0,U,62733,999,7180,.124482E-3,.2006E-4,0
STARLINK-32806,2025-014A,2026-05-12T02:29:19.477824,15.27592356,.00014879,42.9970,156.4467,271.7118,88.3564,0,U,62735,999,7295,.35500857E-3,.9523E-4,0
STARLINK-32329,2025-014B,2026-05-12T02:01:34.555872,15.27587620,.00015178,43.0000,156.2921,280.1332,79.9348,0,U,62736,999,7295,.31540965E-3,.8429E-4,0
STARLINK-32774,2025-014C,2026-05-12T01:44:12.158016,15.27596339,.00009384,42.9992,159.6659,245.6994,114.3760,0,U,62737,999,7291,.55837589E-3,.15142E-3,0
STARLINK-32802,2025-014D,2026-05-12T07:48:35.360928,15.27597078,.00017072,43.0003,154.6613,286.1354,73.9310,0,U,62738,999,7299,.41925491E-3,.11299E-3,0
STARLINK-32796,2025-014E,2026-05-12T03:02:26.680416,15.27596418,.00019426,43.0030,155.7524,271.3147,88.7482,0,U,62739,999,7296,.47155597E-3,.12743E-3,0
STARLINK-32805,2025-014F,2026-05-12T02:51:31.857408,15.27590350,.00010176,43.0002,156.5645,263.2451,96.8285,0,U,62740,999,7295,.52405618E-3,.14191E-3,0
STARLINK-32770,2025-014G,2026-05-12T03:20:55.614912,15.27586586,.00016522,43.0009,155.8500,271.7532,88.3130,0,U,62741,999,7296,.27187343E-3,.7228E-4,0
STARLINK-32775,2025-014H,2026-05-12T02:03:26.578656,15.27531082,.00017237,42.9984,156.3012,272.9290,87.1364,0,U,62742,999,7295,-.68821492E-3,-.19124E-3,0
STARLINK-32800,2025-014J,2026-05-12T02:55:41.057472,15.27570809,.00011603,42.9994,163.5012,274.0590,86.0129,0,U,62743,999,7287,.45083882E-3,.12161E-3,0
STARLINK-32758,2025-014K,2026-05-12T02:02:46.492512,15.27512674,.00012262,42.9998,159.7638,296.7827,63.2899,0,U,62744,999,7291,.39025965E-3,.1047E-3,0
STARLINK-32746,2025-014L,2026-05-11T19:06:05.280480,15.27587496,.0002084,43.0056,157.5715,283.3718,76.6901,0,U,62745,999,7291,.46020312E-3,.12426E-3,0
STARLINK-32780,2025-014M,2026-05-12T02:49:40.929312,15.27593014,.00011126,43.0017,156.5499,274.7158,85.3566,0,U,62746,999,7295,.54845074E-3,.14866E-3,0
STARLINK-32765,2025-014N,2026-05-12T02:18:13.430592,15.27585949,.00011693,42.9987,156.3796,283.9260,76.1461,0,U,62747,999,7295,.31655976E-3,.8461E-4,0
STARLINK-32762,2025-014P,2026-05-11T11:40:31.117728,15.27579248,.00020672,43.0020,163.0087,283.9006,76.1616,0,U,62748,999,7282,.32345692E-3,.8649E-4,0
STARLINK-32761,2025-014Q,2026-05-12T01:51:37.362528,15.27582174,.00014669,42.9997,159.7039,261.7692,98.2993,0,U,62749,999,7291,.29492906E-3,.7863E-4,0
STARLINK-32763,2025-014R,2026-05-12T01:43:04.073088,15.27589918,.00016058,43.0003,156.1937,275.0787,84.9882,0,U,62750,999,7295,.33246143E-3,.89E-4,0
STARLINK-32759,2025-014S,2026-05-12T02:37:53.013504,15.27593107,.00005898,42.9959,159.9494,287.3816,72.6971,0,U,62751,999,7291,.46237269E-3,.12488E-3,0
STARLINK-32756,2025-014T,2026-05-12T01:19:13.349568,15.27590626,.00009473,43.0020,156.9370,273.9090,86.1654,0,U,62752,999,7294,.25949233E-3,.6888E-4,0
STARLINK-32751,2025-014U,2026-05-11T18:53:21.722208,15.27567987,.00019344,43.0007,158.3670,263.2153,96.8479,0,U,62753,999,7290,.33501799E-3,.8965E-4,0
STARLINK-32740,2025-014V,2026-05-11T19:09:47.337984,15.27587613,.00019799,43.0019,157.5933,274.2994,85.7632,0,U,62754,999,7291,.37204723E-3,.9992E-4,0
STARLINK-32745,2025-014W,2026-05-12T02:27:28.287936,15.27582182,.00009912,42.9993,156.4288,267.3841,92.6897,0,U,62755,999,7295,.54403181E-3,.14739E-3,0
USA 485,2025-014X,2026-05-11T22:01:49.233216,15.76408292,.0002263,42.9998,331.2594,267.9002,92.1609,0,U,62756,999,7504,.9182E-3,.152031E-2,0
